GAOFEN-3                
1 41727U 16049A   26066.16788262  .00000112  00000+0  47243-4 0  9998
2 41727  98.4050  75.4782 0001661  92.6074 267.5306 14.42215604503943
PRATHAM                 
1 41783U 16059A   26065.94089914  .00000986  00000+0  18298-3 0  9990
2 41783  97.8317  67.3105 0031226 181.7088 178.4016 14.67032039504527
ALSAT-1N                
1 41789U 16059G   26066.09487969  .00001396  00000+0  24429-3 0  9994
2 41789  97.8031  73.9981 0026619 151.5378 208.7289 14.69109624505019
CAS-2T & KS-1Q          
1 41847U 16066G   26066.14406673  .00001577  00000+0  22823-3 0  9993
2 41847  98.3891 143.0222 0343748  79.1861 284.7817 14.44458817490061
YUNHAI-1 01             
1 41857U 16068A   26066.20213917  .00000568  00000+0  22517-3 0  9999
2 41857  98.5886  78.1357 0005048 348.8021  11.3050 14.32666143487224
RESOURCESAT-2A          
1 41877U 16074A   26066.22733838 -.00000017  00000+0  12412-4 0  9993
2 41877  98.7607 140.5357 0002591  41.5657 318.5716 14.21599207479816
TANSAT                  
1 41898U 16081A   26066.19579501  .00000570  00000+0  12949-3 0  9992
2 41898  98.5356  63.4530 0019277 264.5292  95.3708 14.59867060489745
JILIN-1 03              
1 41914U 17002B   26066.16061872  .00016432  00000+0  42867-3 0  9995
2 41914  97.1995  74.8571 0006564 161.0084 199.1408 15.38875203506155
CARTOSAT-2D             
1 41948U 17008A   26066.13630139  .00000101  00000+0  79918-5 0  9998
2 41948  97.4241 127.2813 0004280 232.4694 127.6152 15.19213991502083
CARTOSAT-2E             
1 42767U 17036C   26066.15326183  .00003293  00000+0  15931-3 0  9990
2 42767  97.4401 127.5712 0002665 305.2480  54.8505 15.19290665482655
D-SAT                   
1 42794U 17036AF  26066.20972727  .00009057  00000+0  44002-3 0  9992
2 42794  97.5488  45.5619 0085012 153.7372 206.8209 15.15473271475406
IRIDIUM 113             
1 42803U 17039A   26066.09924924  .00000037  00000+0  60640-5 0  9996
2 42803  86.4024   4.8314 0002209  81.4492 278.6954 14.34217918456550
NORSAT 2                
1 42828U 17042D   26066.04494530  .00015517  00000+0  72991-3 0  9996
2 42828  97.3968 241.2994 0010498  53.4150 306.8049 15.19604815472215
TECHNOSAT               
1 42829U 17042E   26065.96699587  .00004652  00000+0  33716-3 0  9996
2 42829  97.4154 227.6349 0019760  84.2578 276.0900 15.04256877471334
FLYING LAPTOP           
1 42831U 17042G   26066.17729181  .00002952  00000+0  23799-3 0  9998
2 42831  97.4268 225.9628 0018941 103.5602 256.7734 15.00494369471153
WNISAT 1R               
1 42835U 17042L   26065.99563417  .00004697  00000+0  37052-3 0  9994
2 42835  97.4500 225.9580 0013201 140.4256 219.7935 15.01122376471173
LEMUR-2-GREENBERG       
1 42837U 17042N   26066.03884867  .00021618  00000+0  79527-3 0  9992
2 42837  97.3773 247.4022 0009292  12.9329 347.2147 15.27852187472772
LEMUR-2-FURIAUS         
1 42840U 17042R   26065.94543651  .00026290  00000+0  10194-2 0  9993
2 42840  97.3744 245.5228 0007640  66.9148 293.2895 15.26080661472593
CORVUS BC2              
1 42846U 17042X   26065.93609889  .00005609  00000+0  39238-3 0  9996
2 42846  97.3943 231.3731 0014361 101.8509 258.4330 15.05574130471671
CORVUS BC1              
1 42847U 17042Y   26066.00947095  .00005085  00000+0  35425-3 0  9992
2 42847  97.3973 232.1872 0013170  79.9946 280.2767 15.05784716471712
VRSS-2                  
1 42954U 17060A   26066.17388112  .00000709  00000+0  97699-4 0  9998
2 42954  97.6654 108.4386 0018608  74.8679 285.4591 14.81009538453350
MOHAMMED VI-A           
1 43005U 17070A   26066.19133891  .00000762  00000+0  11494-3 0  9998
2 43005  97.9438 139.9720 0001423  97.6032 262.5340 14.77119489448922
FENGYUN 3D              
1 43010U 17072A   26066.16949100  .00000364  00000+0  19409-3 0  9993
2 43010  99.0031  38.8048 0001695  18.5751 341.5486 14.19715180430512
CZ-4C R/B               
1 43012U 17072C   26066.18098126  .00000709  00000+0  14752-3 0  9999
2 43012  98.5702 170.9028 0123729 106.0367 255.4498 14.58689424441767
NOAA 20 (JPSS-1)        
1 43013U 17073A   26066.07947234  .00000126  00000+0  80523-4 0  9995
2 43013  98.7690   6.4926 0001112 140.9934 219.1323 14.19535238429988
MAKERSAT 0              
1 43016U 17073D   26066.14778021  .00025861  00000+0  78508-3 0  9994
2 43016  97.4778 308.1181 0115557 274.9793  83.8263 15.27649439450868
RADFXSAT (FOX-1B)       
1 43017U 17073E   26066.07847335  .00011461  00000+0  52006-3 0  9998
2 43017  97.4859 295.4303 0154813 321.2352  37.7849 15.10805147449967
JILIN-1 04              
1 43022U 17074A   26066.14506281  .00016767  00000+0  42724-3 0  9995
2 43022  97.4769 173.3130 0004280 187.0873 173.0312 15.39614728458551
JILIN-1 05              
1 43023U 17074B   26066.17172681  .00008263  00000+0  26659-3 0  9993
2 43023  97.4786 171.1228 0004385 218.0440 142.0493 15.32401124458379
JILIN-1 06              
1 43024U 17074C   26066.14143798  .00008493  00000+0  27398-3 0  9994
2 43024  97.4721 168.2011 0005978 234.8921 125.1761 15.32388038458205
IRIDIUM 116             
1 43072U 17083C   26066.14364820  .00000009  00000+0 -39626-5 0  9993
2 43072  86.4021   4.6436 0002062  93.1284 267.0148 14.34217517429546
IRIDIUM 130             
1 43073U 17083D   26066.18170288  .00000043  00000+0  83635-5 0  9997
2 43073  86.4030   4.8929 0001932  90.6485 269.4932 14.34217696429495
LKW-2                   
1 43080U 17084A   26066.16956713  .00006675  00000+0  27113-3 0  9993
2 43080  97.1336 110.7632 0001045 177.2293 182.8951 15.24880199456137
SUPERVIEW-1 03          
1 43099U 18002A   26066.19034689  .00024813  00000+0  68408-3 0  9992
2 43099  97.3168 151.4262 0050846 186.8131 173.2428 15.35775260452697
CARTOSAT-2F             
1 43111U 18004A   26066.18534757  .00004555  00000+0  21946-3 0  9996
2 43111  97.4160 127.3903 0000781 227.2097 132.9072 15.19229959451847
LKW-3                   
1 43146U 18006A   26066.17652553  .00009095  00000+0  28802-3 0  9992
2 43146  97.6476 223.0009 0002393 321.4946  38.6124 15.32981343453073
ASNARO-2                
1 43152U 18007A   26066.17695734  .00012962  00000+0  56370-3 0  9996
2 43152  97.4026  74.6683 0002034  88.0848 272.0622 15.22390482451898
JILIN-1 07              
1 43159U 18008E   26066.12677382  .00011093  00000+0  35061-3 0  9996
2 43159  97.1872  88.8535 0010396  70.9444 289.2924 15.32913323449355
JILIN-1 08              
1 43160U 18008F   26066.13468155  .00009770  00000+0  31693-3 0  9991
2 43160  97.1899  88.2686 0008211  83.5512 276.6665 15.32134770449315
LEMUR-2-KADI            
1 43184U 18014E   26065.85345716  .00099116  00000+0  10634-2 0  9993
2 43184  97.4711 350.3612 0000786  96.7208 263.4140 15.63478714444945
S-NET D                 
1 43186U 18014G   26066.16564860  .00006907  00000+0  36697-3 0  9997
2 43186  97.5435 331.6307 0009109  23.3376 336.8268 15.15583928443300
S-NET B                 
1 43187U 18014H   26066.04310968  .00006512  00000+0  34645-3 0  9996
2 43187  97.5444 331.4923 0009640  18.8353 341.3234 15.15555343443288
S-NET A                 
1 43188U 18014J   26065.30670805  .00006811  00000+0  36193-3 0  9996
2 43188  97.5456 330.9512 0009624  21.8834 338.2807 15.15578985443176
S-NET C                 
1 43189U 18014K   26065.51824489  .00007714  00000+0  40972-3 0  9992
2 43189  97.5472 331.2201 0010756  13.0929 347.0581 15.15542461441759
PAZ                     
1 43215U 18020A   26066.07702346  .00002974  00000+0  14472-3 0  9997
2 43215  97.4460  74.9150 0001746  87.6074 272.5361 15.19162956445502
GOES 17                 
1 43226U 18022A   26066.12405812 -.00000184  00000+0  00000+0 0  9995
2 43226   0.6749  87.4941 0002093 226.3837 166.0912  1.00270120 29406
LKW-4                   
1 43236U 18025A   26065.98046046  .00043581  00000+0  66597-3 0  9996
2 43236  97.6266 229.5198 0002941 311.1600  48.9399 15.54288767444119
ZHUHAI-1 OVS-02         
1 43440U 18040B   26066.22001131  .00008535  00000+0  35861-3 0  9994
2 43440  97.0493  89.5431 0001853 244.7158 115.3888 15.23653824437183
ZHUHAI-1 OHS-02         
1 43441U 18040C   26066.19217281  .00007536  00000+0  31011-3 0  9999
2 43441  97.0497  96.3537 0008326 224.1412 135.9162 15.24367211 98738
GAOFEN-6                
1 43484U 18048A   26066.22103185  .00001211  00000+0  18032-3 0  9997
2 43484  97.7876 132.5888 0013051 142.1802 218.0328 14.76591877418341
LUOJIA-1 01             
1 43485U 18048B   26066.16727800  .00001118  00000+0  13125-3 0  9991
2 43485  97.8156 146.0044 0010513  97.4558 262.7853 14.86855758419058
PAKTES 1A               
1 43529U 18056A   26066.19597661  .00001912  00000+0  16443-3 0  9990
2 43529  98.1126 218.4638 0022116  88.0789 272.2965 14.98527387416644
PRSS-1                  
1 43530U 18056B   26066.16404855  .00001526  00000+0  19967-3 0  9996
2 43530  97.7921 136.8278 0001436  80.6836 279.4539 14.81807587413323
HAIYANG-1C              
1 43609U 18068A   26066.17568172  .00000047  00000+0  32392-4 0  9995
2 43609  98.5280 139.9251 0011553  42.2764 317.9310 14.34143982392463
SSTL S1-4               
1 43618U 18071A   26066.16525244  .00000639  00000+0  61542-4 0  9997
2 43618  97.5187 301.9298 0001699 105.8956 254.2453 14.96203823407680
HAIYANG-2B              
1 43655U 18081A   26066.24608602  .00000033  00000+0  74910-4 0  9999
2 43655  99.3332  76.5240 0001152 144.7082 215.4146 13.79306875370870
CZ-4B R/B               
1 43656U 18081B   26066.16191444  .00000137  00000+0  58241-4 0  9996
2 43656  99.3718 335.9518 0204466 200.4159 158.8762 14.31821406384709
CFOSAT                  
1 43662U 18083A   26066.07730725  .00001822  00000+0  97375-4 0  9999
2 43662  97.3637  73.6023 0001249 125.3650 234.7700 15.16320223406960
TEN-KOH                 
1 43677U 18084G   26066.04456149  .00003418  00000+0  26246-3 0  9999
2 43677  98.0794 254.1206 0011819 100.2278 260.0279 15.02442152400822
